NORAD_CAT_ID,OBJECT_NAME,OBJECT_TYPE,EPOCH,MEAN_MOTION,ECCENTRICITY,INCLINATION,RA_OF_ASC_NODE,ARG_OF_PERICENTER,MEAN_ANOMALY,BSTAR,MEAN_MOTION_DOT,MEAN_MOTION_DDOT,TLE_LINE0,TLE_LINE1,TLE_LINE2,SEMIMAJOR_AXIS,PERIOD,APOGEE,PERIGEE,DECAYED
53851.0,STARLINK-4755,PAYLOAD,2024-02-10 08:46:33,15.08843294,0.0001669,53.2163,98.1454,105.5984,254.5193,0.00035902,5.431e-05,0.0,0 STARLINK-4755,1 53851U 22114AK  24041.36566109  .00005431  00000-0  35902-3 0  9994,2 53851  53.2163  98.1454 0001669 105.5984 254.5193 15.08843294 78490,6917.87,95.437,540.89,538.581,0.0
53851.0,STARLINK-4755,PAYLOAD,2024-02-11 11:48:06,15.08848593,0.0001594,53.2165,93.0922,106.0614,254.0554,0.00021646,3.159e-05,0.0,0 STARLINK-4755,1 53851U 22114AK  24042.49173782  .00003159  00000-0  21646-3 0  9995,2 53851  53.2165  93.0922 0001594 106.0614 254.0554 15.08848593 78122,6917.854,95.437,540.822,538.616,0.0
53851.0,STARLINK-4755,PAYLOAD,2024-02-12 03:41:57,15.08844119,0.0001537,53.2176,90.1169,94.9821,265.1347,9.4815e-05,1.221e-05,0.0,0 STARLINK-4755,1 53851U 22114AK  24043.15413851  .00001221  00000-0  94815-4 0  9990,2 53851  53.2176  90.1169 0001537  94.9821 265.1347 15.08844119 78221,6917.868,95.437,540.796,538.67,0.0
53851.0,STARLINK-4755,PAYLOAD,2024-02-12 08:28:06,15.08848174,0.0001593,53.2172,89.2283,97.9855,262.1318,0.00019322,2.789e-05,0.0,0 STARLINK-4755,1 53851U 22114AK  24043.35285676  .00002789  00000-0  19322-3 0  9993,2 53851  53.2172  89.2283 0001593  97.9855 262.1318 15.08848174 78797,6917.855,95.437,540.822,538.618,0.0
53851.0,STARLINK-4755,PAYLOAD,2024-02-13 09:54:17,15.08835473,0.0001479,53.2179,84.4689,98.4788,261.6371,1.385e-06,-2.66e-06,0.0,0 STARLINK-4755,1 53851U 22114AK  24044.41270368 -.00000266  00000-0  13850-5 0  9994,2 53851  53.2179  84.4689 0001479  98.4788 261.6371 15.08835473 78415,6917.894,95.438,540.782,538.736,0.0
53851.0,STARLINK-4755,PAYLOAD,2024-02-13 19:26:36,15.08841574,0.0001678,53.2191,82.6851,112.2542,247.8628,4.6683e-05,4.55e-06,0.0,0 STARLINK-4755,1 53851U 22114AK  24044.81014401  .00000455  00000-0  46683-4 0  9990,2 53851  53.2191  82.6851 0001678 112.2542 247.8628 15.08841574 79011,6917.876,95.437,540.901,538.58,0.0
53851.0,STARLINK-4755,PAYLOAD,2024-02-14 11:20:27,15.08848824,0.0001762,53.2175,79.708,92.2196,267.8998,0.00017389,2.481e-05,0.0,0 STARLINK-4755,1 53851U 22114AK  24045.47253771  .00002481  00000-0  17389-3 0  9999,2 53851  53.2175  79.7080 0001762  92.2196 267.8998 15.08848824 78577,6917.853,95.437,540.937,538.499,0.0
53851.0,STARLINK-4755,PAYLOAD,2024-02-14 19:17:23,15.08840108,0.0001854,53.2165,78.2226,84.2798,275.8405,0.00017499,2.498e-05,0.0,0 STARLINK-4755,1 53851U 22114AK  24045.80374497  .00002498  00000-0  17499-3 0  9995,2 53851  53.2165  78.2226 0001854  84.2798 275.8405 15.08840108 78628,6917.88,95.438,541.028,538.462,0.0
53851.0,STARLINK-4755,PAYLOAD,2024-02-15 09:35:52,15.08835034,0.0001589,53.2175,75.546,83.7844,276.3329,5.3587e-05,5.65e-06,0.0,0 STARLINK-4755,1 53851U 22114AK  24046.39991202  .00000565  00000-0  53587-4 0  9991,2 53851  53.2175  75.5460 0001589  83.7844 276.3329 15.08835034 79253,6917.896,95.438,540.86,538.661,0.0
53851.0,STARLINK-4755,PAYLOAD,2024-02-15 19:08:10,15.088409,0.0001608,53.2178,73.7623,84.1447,275.9728,9.9332e-05,1.293e-05,0.0,0 STARLINK-4755,1 53851U 22114AK  24046.79734853  .00001293  00000-0  99332-4 0  9999,2 53851  53.2178  73.7623 0001608  84.1447 275.9728 15.08840900 79316,6917.878,95.437,540.855,538.63,0.0
53851.0,STARLINK-4755,PAYLOAD,2024-02-16 07:51:15,15.08848517,0.0001439,53.2154,71.3816,94.8153,265.3003,0.00010369,1.363e-05,0.0,0 STARLINK-4755,1 53851U 22114AK  24047.32726326  .00001363  00000-0  10369-3 0  9995,2 53851  53.2154  71.3816 0001439  94.8153 265.3003 15.08848517 78851,6917.854,95.437,540.715,538.724,0.0
53851.0,STARLINK-4755,PAYLOAD,2024-02-17 07:42:03,15.08840522,0.0001897,53.2176,66.922,91.4028,268.7181,0.00017493,2.497e-05,0.0,0 STARLINK-4755,1 53851U 22114AK  24048.32087038  .00002497  00000-0  17493-3 0  9990,2 53851  53.2176  66.9220 0001897  91.4028 268.7181 15.08840522 79006,6917.879,95.438,541.056,538.431,0.0
53851.0,STARLINK-4755,PAYLOAD,2024-02-18 10:43:36,15.0884803,0.0001584,53.2162,61.8666,92.3981,267.7192,0.00013657,1.887e-05,0.0,0 STARLINK-4755,1 53851U 22114AK  24049.44694521  .00001887  00000-0  13657-3 0  9995,2 53851  53.2162  61.8666 0001584  92.3981 267.7192 15.08848030 79171,6917.856,95.437,540.817,538.625,0.0
53851.0,STARLINK-4755,PAYLOAD,2024-02-19 04:12:50,15.08842826,0.0001701,53.218,58.5924,97.6972,262.4213,8.3625e-05,1.043e-05,0.0,0 STARLINK-4755,1 53851U 22114AK  24050.17559004  .00001043  00000-0  83625-4 0  9990,2 53851  53.2180  58.5924 0001701  97.6972 262.4213 15.08842826 79285,6917.872,95.437,540.913,538.56,0.0
53851.0,STARLINK-4755,PAYLOAD,2024-02-19 07:23:37,15.08845408,0.000162,53.2185,58.0014,94.5183,265.5995,0.0001125,1.503e-05,0.0,0 STARLINK-4755,1 53851U 22114AK  24050.30806840  .00001503  00000-0  11250-3 0  9993,2 53851  53.2185  58.0014 0001620  94.5183 265.5995 15.08845408 79847,6917.864,95.437,540.85,538.608,0.0
53851.0,STARLINK-4755,PAYLOAD,2024-02-19 16:55:56,15.08840058,0.0001442,53.2175,56.2169,93.3802,266.7356,0.00011651,1.567e-05,0.0,0 STARLINK-4755,1 53851U 22114AK  24050.70551171  .00001567  00000-0  11651-3 0  9996,2 53851  53.2175  56.2169 0001442  93.3802 266.7356 15.08840058 79901,6917.88,95.438,540.743,538.748,0.0
53851.0,STARLINK-4755,PAYLOAD,2024-02-20 04:03:38,15.08833857,0.000171,53.2188,54.1403,101.0543,259.0642,-1.2322e-05,-4.84e-06,0.0,0 STARLINK-4755,1 53851U 22114AK  24051.16920072 -.00000484  00000-0 -12322-4 0  9993,2 53851  53.2188  54.1403 0001710 101.0543 259.0642 15.08833857 79430,6917.899,95.438,540.947,538.581,0.0
53851.0,STARLINK-4755,PAYLOAD,2024-02-20 10:25:11,15.08837223,0.0001668,53.2187,52.9462,91.2771,268.8413,3.1454e-05,2.13e-06,0.0,0 STARLINK-4755,1 53851U 22114AK  24051.43415790  .00000213  00000-0  31454-4 0  9994,2 53851  53.2187  52.9462 0001668  91.2771 268.8413 15.08837223 80016,6917.889,95.438,540.908,538.6,0.0
53851.0,STARLINK-4755,PAYLOAD,2024-02-20 16:46:43,15.08834977,0.0001609,53.2183,51.7565,89.7819,270.3358,4.3825e-05,4.09e-06,0.0,0 STARLINK-4755,1 53851U 22114AK  24051.69911996  .00000409  00000-0  43825-4 0  9993,2 53851  53.2183  51.7565 0001609  89.7819 270.3358 15.08834977 80056,6917.896,95.438,540.874,538.648,0.0
53851.0,STARLINK-4755,PAYLOAD,2024-02-21 03:54:25,15.08845314,0.0001429,53.2175,49.6737,90.7924,269.3232,8.702e-05,1.097e-05,0.0,0 STARLINK-4755,1 53851U 22114AK  24052.16279293  .00001097  00000-0  87020-4 0  9992,2 53851  53.2175  49.6737 0001429  90.7924 269.3232 15.08845314 79585,6917.864,95.437,540.718,538.741,0.0
53851.0,STARLINK-4755,PAYLOAD,2024-02-21 07:05:11,15.08849067,0.0001416,53.2174,49.0791,89.3584,270.757,0.00012772,1.746e-05,0.0,0 STARLINK-4755,1 53851U 22114AK  24052.29526999  .00001746  00000-0  12772-3 0  9996,2 53851  53.2174  49.0791 0001416  89.3584 270.7570 15.08849067 80144,6917.853,95.437,540.697,538.738,0.0
53851.0,STARLINK-4755,PAYLOAD,2024-02-21 16:37:30,15.08847496,0.0001604,53.218,47.2924,81.2901,278.8273,2.9092e-05,1.75e-06,0.0,0 STARLINK-4755,1 53851U 22114AK  24052.69271217  .00000175  00000-0  29092-4 0  9999,2 53851  53.2180  47.2924 0001604  81.2901 278.8273 15.08847496 80202,6917.857,95.437,540.832,538.613,0.0
53851.0,STARLINK-4755,PAYLOAD,2024-02-22 03:45:13,15.08829091,0.0001881,53.2199,45.2134,81.4403,278.6803,9.2677e-05,1.187e-05,0.0,0 STARLINK-4755,1 53851U 22114AK  24053.15640619  .00001187  00000-0  92677-4 0  9990,2 53851  53.2199  45.2134 0001881  81.4403 278.6803 15.08829091 79733,6917.914,95.438,541.08,538.477,0.0
53851.0,STARLINK-4755,PAYLOAD,2024-02-22 08:31:22,15.08830797,0.0001598,53.2184,44.3218,82.256,277.8613,4.1339e-05,3.7e-06,0.0,0 STARLINK-4755,1 53851U 22114AK  24053.35512617  .00000370  00000-0  41339-4 0  9990,2 53851  53.2184  44.3218 0001598  82.2560 277.8613 15.08830797 80308,6917.909,95.438,540.879,538.668,0.0
53851.0,STARLINK-4755,PAYLOAD,2024-02-23 03:35:59,15.08849449,0.000158,53.2194,40.755,90.6581,269.4592,0.00010492,1.383e-05,0.0,0 STARLINK-4755,1 53851U 22114AK  24054.14999205  .00001383  00000-0  10492-3 0  9990,2 53851  53.2194  40.7550 0001580  90.6581 269.4592 15.08849449 79883,6917.852,95.437,540.81,538.623,0.0
53851.0,STARLINK-4755,PAYLOAD,2024-02-23 05:11:22,15.08853653,0.0001474,53.2182,40.4574,89.7404,270.3758,8.3135e-05,1.036e-05,0.0,0 STARLINK-4755,1 53851U 22114AK  24054.21622992  .00001036  00000-0  83135-4 0  9994,2 53851  53.2182  40.4574 0001474  89.7404 270.3758 15.08853653 80438,6917.839,95.437,540.723,538.684,0.0
53851.0,STARLINK-4755,PAYLOAD,2024-02-23 16:19:04,15.08843539,0.0001541,53.2183,38.3721,87.0413,273.0756,5.9215e-05,6.55e-06,0.0,0 STARLINK-4755,1 53851U 22114AK  24054.67991539  .00000655  00000-0  59215-4 0  9998,2 53851  53.2183  38.3721 0001541  87.0413 273.0756 15.08843539 79961,6917.87,95.437,540.801,538.669,0.0
53851.0,STARLINK-4755,PAYLOAD,2024-02-23 22:40:37,15.08834002,0.0001592,53.2182,37.1849,86.5554,273.562,9.028e-05,1.149e-05,0.0,0 STARLINK-4755,1 53851U 22114AK  24054.94488112  .00001149  00000-0  90280-4 0  9992,2 53851  53.2182  37.1849 0001592  86.5554 273.5620 15.08834002 80540,6917.899,95.438,540.865,538.662,0.0
53851.0,STARLINK-4755,PAYLOAD,2024-02-24 05:02:10,15.08834633,0.000161,53.2192,35.9953,90.4809,269.6368,9.609e-05,1.241e-05,0.0,0 STARLINK-4755,1 53851U 22114AK  24055.20984074  .00001241  00000-0  96090-4 0  9998,2 53851  53.2192  35.9953 0001610  90.4809 269.6368 15.08834633 80041,6917.897,95.438,540.876,538.648,0.0
53851.0,STARLINK-4755,PAYLOAD,2024-02-24 08:12:56,15.08839736,0.0001493,53.2189,35.399,95.4678,264.6485,5.1188e-05,5.27e-06,0.0,0 STARLINK-4755,1 53851U 22114AK  24055.34231959  .00000527  00000-0  51188-4 0  9995,2 53851  53.2189  35.3990 0001493  95.4678 264.6485 15.08839736 80606,6917.881,95.438,540.779,538.713,0.0
